0 FENGYUN 1C DEB
1 32138U 99025CSG 13284.33414692  .00001587  00000-0  84514-3 0  2441
2 32138 099.0023 331.4827 0025327 137.3368 222.9932 14.14726913325625
0 FENGYUN 1C DEB
1 32138U 99025CSG 13287.37528118  .00001645  00000-0  87500-3 0  2451
2 32138 099.0015 334.5435 0025258 128.5459 231.8150 14.14738628326056
0 FENGYUN 1C DEB
1 32138U 99025CSG 13289.35554124  .00001683  00000-0  89458-3 0  2464
2 32138 098.9998 336.5336 0024779 123.7133 236.6799 14.14746748326334
0 FENGYUN 1C DEB
1 32138U 99025CSG 13289.92132070  .00001725  00000-0  91542-3 0  2474
2 32138 099.0070 337.1304 0028571 122.7555 237.6877 14.14750053326411
0 FENGYUN 1C DEB
1 32138U 99025CSG 13291.33576703  .00001784  00000-0  94623-3 0  2486
2 32138 099.0016 338.5396 0025349 116.8219 243.5546 14.14757078326613
0 FENGYUN 1C DEB
1 32138U 99025CSG 13295.36695097  .00001861  00000-0  98595-3 0  2490
2 32138 098.9976 342.5854 0024849 107.0145 253.4306 14.14774318327187
